SL-12 DEB
1 28004U 88085BA  22166.43931745  .00005346  00000-0  14455-1 0  9994
2 28004  64.3499 282.8547 2945272  38.2227  14.5623  8.64115993556858
ARIANE 44LP DEB
1 28040U 91015P   22166.87689571 -.00000054  00000-0  00000-0 0  9998
2 28040   7.5558 154.0519 6426731  10.8824 117.8060  2.76476396 90072
ARIANE 44L DEB
1 28041U 91075L   22166.87218594  .00000103  00000-0  41271-2 0  9999
2 28041   7.2549 286.9590 6592371 210.6308 122.5582  2.84757587209713
SL-16 DEB
1 28042U 92093JP  22166.81088657  .00000537  00000-0  32463-3 0  9995
2 28042  70.8761 182.2759 0067624 128.4287  45.4980 14.09960792306431
PSLV R/B
1 28050U 03046B   22166.64579619  .00000063  00000-0  52588-4 0  9993
2 28050  98.8667 112.4496 0052216 112.8144  59.5046 14.16845529964929
IRS P6
1 28051U 03046A   22166.92027591  .00000072  00000-0  40076-4 0  9991
2 28051  98.4044 237.9254 0059157  23.5692 336.8179 14.34207145970805
DMSP 5D-3 F16 (USA 172)
1 28054U 03048A   22166.96088914  .00000005  00000-0  26772-4 0  9999
2 28054  98.9876 157.7638 0006811 330.1351  55.9021 14.13674702962821
DMSP 5D-3 F16 DEB
1 28055U 03048B   22166.92700844  .00001731  00000-0  78003-3 0  9999
2 28055  98.7303 155.5982 0004382  95.8176 327.8696 14.23539027965805
DMSP 5D-3 F16 DEB
1 28056U 03048C   22166.95800285  .00001483  00000-0  68115-3 0  9990
2 28056  98.7319 154.2515 0004491 104.1404 256.0273 14.22746445965830
CBERS 2
1 28057U 03049A   22166.82897579  .00000019  00000-0  21750-4 0  9999
2 28057  98.5569 111.5484 0001361 112.7011 247.4320 14.35699707977314
CHUANG XIN 1 (CZ-1)
1 28058U 03049B   22166.88692382  .00000188  00000-0  64367-4 0  9999
2 28058  98.6937  21.0371 0011744 287.3131  72.6776 14.47143267984705
CZ-4B R/B
1 28059U 03049C   22167.06626120  .00000325  00000-0  89431-4 0  9990
2 28059  98.5204 103.8491 0051230  72.0281 288.6489 14.52787844988618
SERVIS 1
1 28060U 03050A   22167.02260678  .00000017  00000-0  67334-4 0  9998
2 28060  99.4250 163.7406 0020579 284.1646 143.7641 13.71844716932460
SL-19 R/B
1 28061U 03050B   22166.64266187 -.00000190  00000-0 -92622-4 0  9999
2 28061  99.4866 123.8088 0146240 191.6240 168.1532 13.97470215950011
CZ-4 DEB
1 28067U 99057MX  22167.01459837  .00002123  00000-0  53704-3 0  9998
2 28067  98.5642 193.0591 0088810 284.0150  75.1181 14.49713545 30539
CZ-4 DEB
1 28068U 99057MY  22166.31658990  .00001200  00000-0  33975-3 0  9995
2 28068  98.6601 185.2027 0089942 356.4775   3.5772 14.45154212472354
CZ-4 DEB
1 28069U 99057MZ  22167.00132146  .00001003  00000-0  27723-3 0  9998
2 28069  98.6363 182.0314 0076604 225.4489 134.0431 14.47328091493672
CZ-4 DEB
1 28070U 99057NA  22166.46047398  .00001529  00000-0  38840-3 0  9998
2 28070  98.5738 174.7466 0071422 102.6942 258.2248 14.50731543 42228
CZ-4 DEB
1 28071U 99057NB  22166.02169363  .00000107  00000-0  52075-4 0  9996
2 28071  98.5538  88.2616 0107021 260.6372 160.8944 14.33326119 36886
CZ-4 DEB
1 28072U 99057NC  22166.85934206  .00001119  00000-0  33776-3 0  9994
2 28072  98.7250 184.3722 0098244  95.1255  27.8013 14.41745302  8306
CZ-4 DEB
1 28073U 99057ND  22166.97548917  .00000391  00000-0  12852-3 0  9991
2 28073  98.7303 171.4224 0083677 325.2147  63.9934 14.42099579 20150
CZ-4 DEB
1 28074U 99057NE  22166.79388046  .00000175  00000-0  77186-4 0  9999
2 28074  98.8577 149.1331 0104133 333.1624 146.4742 14.32836379 13988
CZ-4 DEB
1 28075U 99057NF  22166.83091477  .00000832  00000-0  27213-3 0  9999
2 28075  98.7844 182.9511 0102534 226.1072 133.1614 14.38362788523623
DMSP 5D-3 F16 DEB
1 28080U 03048D   22166.93183199  .00001795  00000-0  77167-3 0  9996
2 28080  98.5173 163.4959 0007482  86.4534 273.7502 14.25861922964624
DMSP 5D-3 F16 DEB
1 28081U 03048E   22166.97486573  .00003862  00000-0  14203-2 0  9991
2 28081  98.5104 162.8999 0014430 318.6208  41.3882 14.33158859965162
CHINASAT 20
1 28082U 03052A   22164.58933921  .00000066  00000-0  00000-0 0  9997
2 28082   7.2393  61.8373 0007680  39.7234  57.4785  0.99108751 67877
YAMAL 202
1 28089U 03053A   22166.61323478 -.00000079  00000-0  00000-0 0  9996
2 28089   2.6310  88.0048 0007292   5.4572 194.6732  1.00271835 68016
YAMAL 201
1 28094U 03053B   22166.80068926 -.00000217  00000-0  00000-0 0  9991
2 28094   6.2276  68.9729 0008324  28.0028 182.5090  1.00300323 70213
COSMOS 2404 (GLONASS)
1 28112U 03056A   22166.84062222  .00000013  00000-0  00000-0 0  9995
2 28112  63.4716 113.8874 0042615  73.3387   8.8961  2.13088211144067
COSMOS 2402 (GLONASS)
1 28113U 03056B   22162.61065719  .00000026  00000-0  00000-0 0  9995
2 28113  63.4874 114.1265 0040338  74.0450 104.4561  2.13105053143994
COSMOS 2403 (GLONASS)
1 28114U 03056C   22166.84048958  .00000013  00000-0  00000-0 0  9997
2 28114  63.4929 114.0223 0052196  58.8067  33.6482  2.13104788144088
BREEZE-M R/B
1 28115U 03056D   22166.87166262  .00000013  00000-0  00000-0 0  9990
2 28115  63.4544 113.6655 0064021  77.7293 104.2884  2.13127896144072
BREEZE-M DEB (TANK)
1 28116U 03056E   22166.58826401  .00000617  00000-0  51006-3 0  9992
2 28116  52.9450 214.1691 5687641 185.9010 162.5394  4.39761719293168
UFO 11 (USA 174)
1 28117U 03057A   22166.67896625 -.00000096  00000-0  00000-0 0  9996
2 28117   6.9809  37.9104 0006199  39.6703 145.2158  1.00271895 67787
ATLAS 3B CENTAUR R/B
1 28118U 03057B   22167.03787833  .00290762 -32008-5  16554-2 0  9990
2 28118  28.0650 162.7484 1508546 150.5455 218.9316 12.69699412315490
SL-12 R/B(2)
1 28119U 03053E   22166.62091822 -.00000189  00000-0  00000-0 0  9998
2 28119  12.4763  23.5961 0219462 267.5701  98.8826  1.00031171 70095
NAVSTAR 53 (USA 175)
1 28129U 03058A   22166.05221643 -.00000044  00000-0  00000-0 0  9997
2 28129  53.8715  81.5643 0069981 316.2516  43.2001  2.00546801135440
AMOS 2
1 28132U 03059A   22167.02452253 -.00000312  00000-0  00000-0 0  9991
2 28132   4.9100  77.9538 0006619  21.9485 302.9066  0.99398660 67506
FREGAT R/B
1 28133U 03059B   22165.93246441 -.00000326  00000-0  00000-0 0  9995
2 28133  23.1140 118.1499 5933901 349.9121   1.9228  2.01471335135942
SESAT 2 (EXPRESS AM-22)
1 28134U 03060A   22166.93622053  .00000099  00000-0  00000-0 0  9992
2 28134   4.6401  79.2645 0009117  65.9693 142.8517  0.99353022 67503
ESTRELA DU SOL-TELSTAR14
1 28137U 04001A   22166.92132830 -.00000142  00000-0  00000-0 0  9999
2 28137   8.0735  55.5194 0009630   7.7165 183.5912  0.98833663 67131
BLOCK DM-SL R/B
1 28138U 04001B   22166.70669394 -.00000088  00000-0 -53510-3 0  9993
2 28138   0.1051 122.0653 7130338  52.5180 202.4384  2.24703892151339
SL-12 R/B(2)
1 28139U 03060D   22166.69563260 -.00000087  00000-0  00000-0 0  9992
2 28139  12.3377  23.9032 0013142 185.6554  15.8154  1.00326260 67368
DELTA 1 DEB (YO)
1 28144U 76066D   22164.96302150  .00003975  00000-0  72733-3 0  9994
2 28144  24.6180  29.8757 4537888 327.2484  11.3814  6.38383419230416
DELTA 1 DEB (YO)
1 28145U 77018F   22165.20387888  .00008062  00000-0  10936-2 0  9990
2 28145  24.5409  23.8141 4921163 215.0762  99.5141  5.76580808369109
AMC-10 (GE-10)
1 28154U 04003A   22166.59128623  .00000077  00000-0  00000-0 0  9994
2 28154   2.9684  83.8017 0007479  11.7383 248.7534  0.99118985 67071
ATLAS 2AS CENTAUR R/B
1 28155U 04003B   22166.29980885  .00003133  00000-0  98610-3 0  9991
2 28155  12.2300 214.0721 6364818 113.2987 323.3545  3.49145615195058
USA 149 DEB
1 28156U 00024E   22165.81530718 -.00000041  00000-0  00000-0 0  9993
2 28156  12.6313  21.3619 0195497  53.1111 308.6111  0.99726685 10068
USA 176
1 28158U 04004A   22166.95529808 -.00000222  00000-0  00000-0 0  9992
2 28158  10.0896  35.2850 0000906  72.5374 227.5142  1.00266973 18260
IUS R/B(1)
1 28160U 04004C   22166.72114244  .00000385  00000-0  41506-3 0  9992
2 28160  28.5478 309.9761 7187847  23.9760 357.0865  2.36029065 27058
IUS R/B(2)
1 28161U 04004D   22165.77645616  .00000103  00000-0  00000-0 0  9998
2 28161  10.1744  35.4881 0008679  21.7795 338.2004  0.99820890 10788
MBSAT
1 28184U 04007A   22167.01074206  .00000040  00000-0  00000-0 0  9996
2 28184   2.3199  89.1855 0005456 357.9474 241.9325  1.00271113 37679
EUTE 7A (EUTE W3A)
1 28187U 04008A   22166.97093337  .00000104  00000-0  00000-0 0  9991
2 28187   2.1066  88.2623 0004599 352.7509  33.5402  1.00268776 66691
BREEZE-M DEB (TANK)
1 28188U 04008B   22166.86337419  .00008924  00000-0  12975-2 0  9996
2 28188  49.4637 271.7086 5074618 195.1902 141.0273  5.50734842352287
NAVSTAR 54 (USA 177)
1 28190U 04009A   22166.55232278 -.00000070  00000-0  00000-0 0  9992
2 28190  56.0062 334.1171 0090641 120.4607 237.5753  2.00560317133600
DELTA 2 DEB
1 28193U 04009D   22163.78546417  .00183830  15311-5  59695-3 0  9998
2 28193  38.7909 321.0179 2258235 164.0595 204.4989 11.12945621 82997
RADUGA 1-7
1 28194U 04010A   22167.02443531 -.00000357  00000-0  00000-0 0  9995
2 28194  11.9674  31.6790 0001725  70.2355 300.8242  1.00278785 66769
NIMBUS 2 DEB
1 28200U 66040N   22167.01892333 -.00000362  00000-0 -69344-3 0  9997
2 28200  99.8669 319.8579 0043844 247.1052 236.6187 13.28688481937671
NIMBUS 2 DEB
1 28201U 66040P   22167.02150444  .00001564  00000-0  23585-2 0  9998
2 28201 100.2310   9.9779 0062638 345.6605 173.2972 13.53750223452796
NIMBUS 2 DEB
1 28202U 66040Q   22166.30742222  .00001465  00000-0  21200-2 0  9992
2 28202 100.1415 342.2056 0031995 289.8520 194.6017 13.57008344433835
NIMBUS 2 DEB
1 28203U 66040R   22166.96840267  .00001228  00000-0  21446-2 0  9992
2 28203 100.3737 344.3639 0048878 214.8104 300.1698 13.45256150987873
NIMBUS 2 DEB
1 28204U 66040S   22166.51178586  .00002779  00000-0  36238-2 0  9999
2 28204 100.1217 357.4120 0041105  99.3394 285.6953 13.62382129947285
NIMBUS 2 DEB
1 28205U 66040T   22166.72680271  .00001635  00000-0  27610-2 0  9996
2 28205 100.3225 328.4763 0050281 234.8828 139.5498 13.46792640895267
